GLOBALSTAR M001         
1 25162U 98008A   26019.29665729 -.00000083  00000+0  10444-3 0  9992
2 25162  52.0039  64.2113 0001119   7.7952  83.7509 12.38225891270480
GLOBALSTAR M004         
1 25163U 98008B   26019.28333817 -.00000058  00000+0  25524-3 0  9999
2 25163  52.0001 114.8859 0003555  62.6537 331.9362 12.63412956289005
GLOBALSTAR M002         
1 25164U 98008C   26019.34095275 -.00000055  00000+0  43203-3 0  9991
2 25164  52.0025  58.2319 0001761 172.8796 187.2050 11.61514552209181
GLOBALSTAR M003         
1 25165U 98008D   26019.20350688 -.00000182  00000+0 -98340-3 0  9993
2 25165  51.9898 290.2153 0008585  10.9834 146.3956 12.12034561259414
GLOBALSTAR M014         
1 25306U 98023A   26019.26931196 -.00000091  00000+0 -26042-3 0  9991
2 25306  51.9870 337.0923 0001354  37.4842 111.0606 11.65483650216368
GLOBALSTAR M006         
1 25307U 98023B   26019.33232654 -.00000108  00000+0 -65493-3 0  9995
2 25307  51.9954  37.4835 0003268 140.8776 317.3519 11.58176716241878
GLOBALSTAR M015         
1 25308U 98023C   26019.11056954 -.00000090  00000+0 -36747-3 0  9999
2 25308  51.9807 146.4048 0013650 101.4730  69.4999 11.48863274218896
GLOBALSTAR M008         
1 25309U 98023D   26019.24379633 -.00000035  00000+0  47830-3 0  9999
2 25309  51.9978 291.6473 0002041 281.9964 248.8306 12.36079137264561
